{"type": "FeatureCollection", "features": [ {"type": "Feature", "properties": {"norad_id": 28659, "name": "DIRECTV 8", "group": "intelsat", "lat": -0.04246632656162795, "lon": -124.87201686235929, "alt_km": 35776.43844521831, "timestamp": "2025-12-17T17:50:18.919547+00:00", "meta": {"OBJECT_NAME": "DIRECTV 8", "OBJECT_ID": "2005-019A", "EPOCH": "2025-12-17T07:56:53.483712", "MEAN_MOTION": 1.00272909, "ECCENTRICITY": 0.00028656, "INCLINATION": 0.018, "RA_OF_ASC_NODE": 326.4689, "ARG_OF_PERICENTER": 308.6479, "MEAN_ANOMALY": 171.2805, "EPHEMERIS_TYPE": 0, "CLASSIFICATION_TYPE": "U", "NORAD_CAT_ID": 28659, "ELEMENT_SET_NO": 999, "REV_AT_EPOCH": 7525, "BSTAR": 0, "MEAN_MOTION_DOT": 2.6e-07, "MEAN_MOTION_DDOT": 0}, "tle": {"line1": "1 28659U 05019A   25351.33117458  .00000026  00000+0  00000+0 0  9999", "line2": "2 28659   0.0180 326.4689 0002865 308.6479 171.2805  1.00272909 75250"}}, "geometry": {"type": "Point", "coordinates": [-124.87201686235929, -0.04246632656162795]}}, {"type": "Feature", "properties": {"norad_id": 28702, "name": "GALAXY 28 (G-28)", "group": "intelsat", "lat": -0.23648699850833887, "lon": -94.52174501543598, "alt_km": 35774.237128232, "timestamp": "2025-12-17T17:50:18.919559+00:00", "meta": {"OBJECT_NAME": "GALAXY 28 (G-28)", "OBJECT_ID": "2005-022A", "EPOCH": "2025-12-17T06:03:38.655936", "MEAN_MOTION": 1.00270854, "ECCENTRICITY": 0.0002891, "INCLINATION": 2.8309, "RA_OF_ASC_NODE": 81.2305, "ARG_OF_PERICENTER": 190.8852, "MEAN_ANOMALY": 176.2288, "EPHEMERIS_TYPE": 0, "CLASSIFICATION_TYPE": "U", "NORAD_CAT_ID": 28702, "ELEMENT_SET_NO": 999, "REV_AT_EPOCH": 5015, "BSTAR": 0, "MEAN_MOTION_DOT": -1.65e-06, "MEAN_MOTION_DDOT": 0}, "tle": {"line1": "1 28702U 05022A   25351.25253074 -.00000165  00000+0  00000+0 0  9993", "line2": "2 28702   2.8309  81.2305 0002891 190.8852 176.2288  1.00270854 50157"}}, "geometry": {"type": "Point", "coordinates": [-94.52174501543598, -0.23648699850833887]}}, {"type": "Feature", "properties": {"norad_id": 29236, "name": "GALAXY 16 (G-16)", "group": "intelsat", "lat": -0.012795487214839833, "lon": -104.81871274185497, "alt_km": 35775.63154080525, "timestamp": "2025-12-17T17:50:18.919571+00:00", "meta": {"OBJECT_NAME": "GALAXY 16 (G-16)", "OBJECT_ID": "2006-023A", "EPOCH": "2025-12-17T06:14:51.385344", "MEAN_MOTION": 1.00272272, "ECCENTRICITY": 0.0002452, "INCLINATION": 0.0332, "RA_OF_ASC_NODE": 219.7084, "ARG_OF_PERICENTER": 41.8008, "MEAN_ANOMALY": 179.3456, "EPHEMERIS_TYPE": 0, "CLASSIFICATION_TYPE": "U", "NORAD_CAT_ID": 29236, "ELEMENT_SET_NO": 999, "REV_AT_EPOCH": 7114, "BSTAR": 0, "MEAN_MOTION_DOT": -1.02e-06, "MEAN_MOTION_DDOT": 0}, "tle": {"line1": "1 29236U 06023A   25351.26031696 -.00000102  00000+0  00000+0 0  9994", "line2": "2 29236   0.0332 219.7084 0002452  41.8008 179.3456  1.00272272 71148"}}, "geometry": {"type": "Point", "coordinates": [-104.81871274185497, -0.012795487214839833]}}, {"type": "Feature", "properties": {"norad_id": 29494, "name": "DIRECTV 9S", "group": "intelsat", "lat": 0.3190216123080813, "lon": -107.02929395770681, "alt_km": 35774.62340279933, "timestamp": "2025-12-17T17:50:18.919583+00:00", "meta": {"OBJECT_NAME": "DIRECTV 9S", "OBJECT_ID": "2006-043A", "EPOCH": "2025-12-17T06:51:09.005760", "MEAN_MOTION": 1.00271922, "ECCENTRICITY": 0.00028284, "INCLINATION": 1.9514, "RA_OF_ASC_NODE": 83.1644, "ARG_OF_PERICENTER": 188, "MEAN_ANOMALY": 176.5764, "EPHEMERIS_TYPE": 0, "CLASSIFICATION_TYPE": "U", "NORAD_CAT_ID": 29494, "ELEMENT_SET_NO": 999, "REV_AT_EPOCH": 4956, "BSTAR": 0, "MEAN_MOTION_DOT": -9e-07, "MEAN_MOTION_DDOT": 0}, "tle": {"line1": "1 29494U 06043A   25351.28552090 -.00000090  00000+0  00000+0 0  9996", "line2": "2 29494   1.9514  83.1644 0002828 188.0000 176.5764  1.00271922 49567"}}, "geometry": {"type": "Point", "coordinates": [-107.02929395770681, 0.3190216123080813]}}, {"type": "Feature", "properties": {"norad_id": 31307, "name": "GALAXY 17 (G-17)", "group": "intelsat", "lat": -0.3322761482889702, "lon": -90.77260342980387, "alt_km": 35763.920279322505, "timestamp": "2025-12-17T17:50:18.919594+00:00", "meta": {"OBJECT_NAME": "GALAXY 17 (G-17)", "OBJECT_ID": "2007-016B", "EPOCH": "2025-12-17T06:03:38.655936", "MEAN_MOTION": 1.00272012, "ECCENTRICITY": 0.00055326, "INCLINATION": 2.5111, "RA_OF_ASC_NODE": 82.2351, "ARG_OF_PERICENTER": 167.9961, "MEAN_ANOMALY": 201.838, "EPHEMERIS_TYPE": 0, "CLASSIFICATION_TYPE": "U", "NORAD_CAT_ID": 31307, "ELEMENT_SET_NO": 999, "REV_AT_EPOCH": 6798, "BSTAR": 0, "MEAN_MOTION_DOT": -1.84e-06, "MEAN_MOTION_DDOT": 0}, "tle": {"line1": "1 31307U 07016B   25351.25253074 -.00000184  00000+0  00000+0 0  9994", "line2": "2 31307   2.5111  82.2351 0005532 167.9961 201.8380  1.00272012 67988"}}, "geometry": {"type": "Point", "coordinates": [-90.77260342980387, -0.3322761482889702]}}, {"type": "Feature", "properties": {"norad_id": 31862, "name": "DIRECTV 10", "group": "intelsat", "lat": 0.011463042098467673, "lon": -108.61956572020262, "alt_km": 35785.61324182732, "timestamp": "2025-12-17T17:50:18.919606+00:00", "meta": {"OBJECT_NAME": "DIRECTV 10", "OBJECT_ID": "2007-032A", "EPOCH": "2025-12-17T07:02:53.517408", "MEAN_MOTION": 1.00269426, "ECCENTRICITY": 3.669e-05, "INCLINATION": 0.0146, "RA_OF_ASC_NODE": 159.5204, "ARG_OF_PERICENTER": 48.9964, "MEAN_ANOMALY": 240.5776, "EPHEMERIS_TYPE": 0, "CLASSIFICATION_TYPE": "U", "NORAD_CAT_ID": 31862, "ELEMENT_SET_NO": 999, "REV_AT_EPOCH": 4376, "BSTAR": 0, "MEAN_MOTION_DOT": -7.8e-07, "MEAN_MOTION_DDOT": 0}, "tle": {"line1": "1 31862U 07032A   25351.29367497 -.00000078  00000+0  00000+0 0  9999", "line2": "2 31862   0.0146 159.5204 0000366  48.9964 240.5776  1.00269426 43765"}}, "geometry": {"type": "Point", "coordinates": [-108.61956572020262, 0.011463042098467673]}}, {"type": "Feature", "properties": {"norad_id": 32253, "name": "INTELSAT 11 (IS-11)", "group": "intelsat", "lat": 2.7462548670183518, "lon": -162.19155282918766, "alt_km": 36108.27754256786, "timestamp": "2025-12-17T17:50:18.919618+00:00", "meta": {"OBJECT_NAME": "INTELSAT 11 (IS-11)", "OBJECT_ID": "2007-044B", "EPOCH": "2025-12-17T07:08:04.843392", "MEAN_MOTION": 0.99051025, "ECCENTRICITY": 0.00086065, "INCLINATION": 3.0916, "RA_OF_ASC_NODE": 80.9265, "ARG_OF_PERICENTER": 167.7417, "MEAN_ANOMALY": 150.1516, "EPHEMERIS_TYPE": 0, "CLASSIFICATION_TYPE": "U", "NORAD_CAT_ID": 32253, "ELEMENT_SET_NO": 999, "REV_AT_EPOCH": 6664, "BSTAR": 0, "MEAN_MOTION_DOT": 2.1e-07, "MEAN_MOTION_DDOT": 0}, "tle": {"line1": "1 32253U 07044B   25351.29727828  .00000021  00000+0  00000+0 0  9992", "line2": "2 32253   3.0916  80.9265 0008606 167.7417 150.1516  0.99051025 66641"}}, "geometry": {"type": "Point", "coordinates": [-162.19155282918766, 2.7462548670183518]}}, {"type": "Feature", "properties": {"norad_id": 32388, "name": "HORIZONS-2", "group": "intelsat", "lat": -0.6658100025300318, "lon": -79.60607458581522, "alt_km": 35766.63102320255, "timestamp": "2025-12-17T17:50:18.919630+00:00", "meta": {"OBJECT_NAME": "HORIZONS-2", "OBJECT_ID": "2007-063B", "EPOCH": "2025-12-17T04:24:51.296256", "MEAN_MOTION": 1.00272984, "ECCENTRICITY": 0.00045758, "INCLINATION": 2.1326, "RA_OF_ASC_NODE": 82.9158, "ARG_OF_PERICENTER": 191.1459, "MEAN_ANOMALY": 164.4271, "EPHEMERIS_TYPE": 0, "CLASSIFICATION_TYPE": "U", "NORAD_CAT_ID": 32388, "ELEMENT_SET_NO": 999, "REV_AT_EPOCH": 6598, "BSTAR": 0, "MEAN_MOTION_DOT": -2.31e-06, "MEAN_MOTION_DDOT": 0}, "tle": {"line1": "1 32388U 07063B   25351.18392704 -.00000231  00000+0  00000+0 0  9995", "line2": "2 32388   2.1326  82.9158 0004575 191.1459 164.4271  1.00272984 65980"}}, "geometry": {"type": "Point", "coordinates": [-79.60607458581522, -0.6658100025300318]}}, {"type": "Feature", "properties": {"norad_id": 32729, "name": "DIRECTV 11", "group": "intelsat", "lat": -0.005430754872408837, "lon": -104.99711085809527, "alt_km": 35786.271625785485, "timestamp": "2025-12-17T17:50:18.919647+00:00", "meta": {"OBJECT_NAME": "DIRECTV 11", "OBJECT_ID": "2008-013A", "EPOCH": "2025-12-16T21:26:45.259296", "MEAN_MOTION": 1.00271167, "ECCENTRICITY": 5.224e-05, "INCLINATION": 0.0169, "RA_OF_ASC_NODE": 231.5018, "ARG_OF_PERICENTER": 293.6568, "MEAN_ANOMALY": 143.1244, "EPHEMERIS_TYPE": 0, "CLASSIFICATION_TYPE": "U", "NORAD_CAT_ID": 32729, "ELEMENT_SET_NO": 999, "REV_AT_EPOCH": 4376, "BSTAR": 0, "MEAN_MOTION_DOT": -1.01e-06, "MEAN_MOTION_DDOT": 0}, "tle": {"line1": "1 32729U 08013A   25350.89357939 -.00000101  00000+0  00000+0 0  9994", "line2": "2 32729   0.0169 231.5018 0000522 293.6568 143.1244  1.00271167 43763"}}, "geometry": {"type": "Point", "coordinates": [-104.99711085809527, -0.005430754872408837]}}, {"type": "Feature", "properties": {"norad_id": 32951, "name": "GALAXY 18 (G-18)", "group": "intelsat", "lat": -0.0024550943469715822, "lon": -128.83813374033255, "alt_km": 35776.845078187805, "timestamp": "2025-12-17T17:50:18.919659+00:00", "meta": {"OBJECT_NAME": "GALAXY 18 (G-18)", "OBJECT_ID": "2008-024A", "EPOCH": "2025-12-17T06:30:24.768000", "MEAN_MOTION": 1.00272901, "ECCENTRICITY": 0.00028344, "INCLINATION": 0.0052, "RA_OF_ASC_NODE": 80.5939, "ARG_OF_PERICENTER": 192.8645, "MEAN_ANOMALY": 147.2943, "EPHEMERIS_TYPE": 0, "CLASSIFICATION_TYPE": "U", "NORAD_CAT_ID": 32951, "ELEMENT_SET_NO": 999, "REV_AT_EPOCH": 4402, "BSTAR": 0, "MEAN_MOTION_DOT": 5e-07, "MEAN_MOTION_DDOT": 0}, "tle": {"line1": "1 32951U 08024A   25351.27112000  .00000050  00000+0  00000+0 0  9996", "line2": "2 32951   0.0052  80.5939 0002834 192.8645 147.2943  1.00272901 44027"}}, "geometry": {"type": "Point", "coordinates": [-128.83813374033255, -0.0024550943469715822]}}]}